[{"OBJECT_NAME":"CASSIOPE","OBJECT_ID":"2013-055A","EPOCH":"2026-03-09T21:11:47.938272","MEAN_MOTION":15.1877309,"ECCENTRICITY":0.03156148,"INCLINATION":80.9178,"RA_OF_ASC_NODE":186.7098,"ARG_OF_PERICENTER":35.6181,"MEAN_ANOMALY":326.5663,"EPHEMERIS_TYPE":0,"CLASSIFICATION_TYPE":"U","NORAD_CAT_ID":39265,"ELEMENT_SET_NO":999,"REV_AT_EPOCH":65256,"BSTAR":0.00049515333,"MEAN_MOTION_DOT":0.00041326,"MEAN_MOTION_DDOT":-5.06855e-7},{"OBJECT_NAME":"STARLINK-2386","OBJECT_ID":"2021-018U","EPOCH":"2026-03-09T16:20:00.005568","MEAN_MOTION":15.06384501,"ECCENTRICITY":8.827e-5,"INCLINATION":53.056,"RA_OF_ASC_NODE":231.8999,"ARG_OF_PERICENTER":115.4205,"MEAN_ANOMALY":244.6876,"EPHEMERIS_TYPE":0,"CLASSIFICATION_TYPE":"U","NORAD_CAT_ID":47805,"ELEMENT_SET_NO":999,"REV_AT_EPOCH":27687,"BSTAR":6.2334433e-5,"MEAN_MOTION_DOT":6.47e-6,"MEAN_MOTION_DDOT":0}]
